QPS-SAR-8 (AMATERU-IV)  
1 60542U 24149CC  26064.31017355  .00008720  00000+0  65302-3 0  9995
2 60542  97.6698 144.3997 0003950 104.5803 255.5861 15.02946586 84661
ARCTIC WEATHER SATELLITE
1 60543U 24149CD  26064.18271960  .00001241  00000+0  13497-3 0  9994
2 60543  97.6888 137.5829 0003611  96.1528 264.0102 14.89808755 83813
CAPELLA-15 (ACADIA-5)   
1 60544U 24149CE  26064.06587568  .00002610  00000+0  26000-3 0  9991
2 60544  97.6833 139.5307 0004447  79.9794 280.1927 14.92441034 84327
HAWK-10B                
1 60545U 24149CF  26064.18500527  .00001989  00000+0  18171-3 0  9993
2 60545  97.6887 141.3414 0006726  83.4672 276.7315 14.96154912 84438
ICEYE-X39               
1 60546U 24149CG  26064.24867746  .00004268  00000+0  35520-3 0  9990
2 60546  97.6877 142.6835 0005843  67.6257 292.5585 14.99189757 84546
UMBRA-10                
1 60547U 24149CH  26064.20309715  .00021343  00000+0  11585-2 0  9991
2 60547  97.7001 149.9146 0000186  96.6236 263.5016 15.14561341 84971
ICEYE-X33               
1 60548U 24149CJ  26064.24509890  .00006503  00000+0  51272-3 0  9991
2 60548  97.7039 144.1223 0006193 134.5268 225.6463 15.01077208 84613
ICEYE-X40               
1 60549U 24149CK  26064.21561495  .00003389  00000+0  29544-3 0  9994
2 60549  97.6862 142.3862 0005762  75.3652 284.8209 14.97527199 84513
SATELIOT_1              
1 60550U 24149CL  26064.21230596  .00003267  00000+0  28455-3 0  9996
2 60550  97.6807 141.8496 0007612  70.6144 289.5901 14.97574292 84507
BRO-14                  
1 60551U 24149CM  26064.19119506  .00001384  00000+0  12875-3 0  9998
2 60551  97.6943 141.8272 0008070  86.9913 273.2232 14.95914094 84440
SATELIOT_3              
1 60552U 24149CN  26064.18774802  .00002886  00000+0  25201-3 0  9999
2 60552  97.6892 142.5220 0006351  75.4722 284.7205 14.97575796 84515
BRO-15                  
1 60553U 24149CP  26064.17099592  .00001513  00000+0  14036-3 0  9995
2 60553  97.6875 141.5073 0009613  79.0280 281.2022 14.95880996 84456
UM5-RIBAT               
1 60554U 24149CQ  26064.26079887  .00004825  00000+0  38838-3 0  9996
2 60554  97.6800 143.4351 0003758  94.8527 265.3126 15.00420922 84609
UM5-EOSAT               
1 60555U 24149CR  26064.18949175  .00005181  00000+0  41179-3 0  9992
2 60555  97.6877 144.1938 0009090 119.9691 240.2436 15.00848428 84611
LASARSAT                
1 62391U 24247Q   26064.20954619  .00035378  00000+0  87708-3 0  9992
2 62391  44.9754 123.6865 0002782 357.5734   2.5139 15.39833559 67251
CROCUBE                 
1 62394U 24247T   26063.20534325  .00044929  00000+0  10733-2 0  9997
2 62394  44.9726 127.9459 0003019 338.1177  21.9582 15.40856803 67110
