[{"OBJECT_NAME":"QPS-SAR-8 (AMATERU-IV)","OBJECT_ID":"2024-149CC","EPOCH":"2026-03-05T07:26:38.994720","MEAN_MOTION":15.02946586,"ECCENTRICITY":0.00039502,"INCLINATION":97.6698,"RA_OF_ASC_NODE":144.3997,"ARG_OF_PERICENTER":104.5803,"MEAN_ANOMALY":255.5861,"EPHEMERIS_TYPE":0,"CLASSIFICATION_TYPE":"U","NORAD_CAT_ID":60542,"ELEMENT_SET_NO":999,"REV_AT_EPOCH":8466,"BSTAR":0.00065301835,"MEAN_MOTION_DOT":8.72e-5,"MEAN_MOTION_DDOT":0},{"OBJECT_NAME":"ARCTIC WEATHER SATELLITE","OBJECT_ID":"2024-149CD","EPOCH":"2026-03-05T04:23:06.973440","MEAN_MOTION":14.89808755,"ECCENTRICITY":0.00036117,"INCLINATION":97.6888,"RA_OF_ASC_NODE":137.5829,"ARG_OF_PERICENTER":96.1528,"MEAN_ANOMALY":264.0102,"EPHEMERIS_TYPE":0,"CLASSIFICATION_TYPE":"U","NORAD_CAT_ID":60543,"ELEMENT_SET_NO":999,"REV_AT_EPOCH":8381,"BSTAR":0.00013496586,"MEAN_MOTION_DOT":1.241e-5,"MEAN_MOTION_DDOT":0},{"OBJECT_NAME":"CAPELLA-15 (ACADIA-5)","OBJECT_ID":"2024-149CE","EPOCH":"2026-03-05T01:34:51.658752","MEAN_MOTION":14.92441034,"ECCENTRICITY":0.00044475,"INCLINATION":97.6833,"RA_OF_ASC_NODE":139.5307,"ARG_OF_PERICENTER":79.9794,"MEAN_ANOMALY":280.1927,"EPHEMERIS_TYPE":0,"CLASSIFICATION_TYPE":"U","NORAD_CAT_ID":60544,"ELEMENT_SET_NO":999,"REV_AT_EPOCH":8432,"BSTAR":0.00025999636,"MEAN_MOTION_DOT":2.61e-5,"MEAN_MOTION_DDOT":0},{"OBJECT_NAME":"HAWK-10B","OBJECT_ID":"2024-149CF","EPOCH":"2026-03-05T04:26:24.455328","MEAN_MOTION":14.96154912,"ECCENTRICITY":0.00067265,"INCLINATION":97.6887,"RA_OF_ASC_NODE":141.3414,"ARG_OF_PERICENTER":83.4672,"MEAN_ANOMALY":276.7315,"EPHEMERIS_TYPE":0,"CLASSIFICATION_TYPE":"U","NORAD_CAT_ID":60545,"ELEMENT_SET_NO":999,"REV_AT_EPOCH":8443,"BSTAR":0.00018170647,"MEAN_MOTION_DOT":1.989e-5,"MEAN_MOTION_DDOT":0},{"OBJECT_NAME":"ICEYE-X39","OBJECT_ID":"2024-149CG","EPOCH":"2026-03-05T05:58:05.732544","MEAN_MOTION":14.99189757,"ECCENTRICITY":0.0005843,"INCLINATION":97.6877,"RA_OF_ASC_NODE":142.6835,"ARG_OF_PERICENTER":67.6257,"MEAN_ANOMALY":292.5585,"EPHEMERIS_TYPE":0,"CLASSIFICATION_TYPE":"U","NORAD_CAT_ID":60546,"ELEMENT_SET_NO":999,"REV_AT_EPOCH":8454,"BSTAR":0.00035519574,"MEAN_MOTION_DOT":4.268e-5,"MEAN_MOTION_DDOT":0},{"OBJECT_NAME":"UMBRA-10","OBJECT_ID":"2024-149CH","EPOCH":"2026-03-05T04:52:27.593760","MEAN_MOTION":15.14561341,"ECCENTRICITY":1.861e-5,"INCLINATION":97.7001,"RA_OF_ASC_NODE":149.9146,"ARG_OF_PERICENTER":96.6236,"MEAN_ANOMALY":263.5016,"EPHEMERIS_TYPE":0,"CLASSIFICATION_TYPE":"U","NORAD_CAT_ID":60547,"ELEMENT_SET_NO":999,"REV_AT_EPOCH":8497,"BSTAR":0.0011584693,"MEAN_MOTION_DOT":0.00021343,"MEAN_MOTION_DDOT":0},{"OBJECT_NAME":"ICEYE-X33","OBJECT_ID":"2024-149CJ","EPOCH":"2026-03-05T05:52:56.544960","MEAN_MOTION":15.01077208,"ECCENTRICITY":0.00061932,"INCLINATION":97.7039,"RA_OF_ASC_NODE":144.1223,"ARG_OF_PERICENTER":134.5268,"MEAN_ANOMALY":225.6463,"EPHEMERIS_TYPE":0,"CLASSIFICATION_TYPE":"U","NORAD_CAT_ID":60548,"ELEMENT_SET_NO":999,"REV_AT_EPOCH":8461,"BSTAR":0.0005127171,"MEAN_MOTION_DOT":6.503e-5,"MEAN_MOTION_DDOT":0},{"OBJECT_NAME":"ICEYE-X40","OBJECT_ID":"2024-149CK","EPOCH":"2026-03-05T05:10:29.131680","MEAN_MOTION":14.97527199,"ECCENTRICITY":0.00057623,"INCLINATION":97.6862,"RA_OF_ASC_NODE":142.3862,"ARG_OF_PERICENTER":75.3652,"MEAN_ANOMALY":284.8209,"EPHEMERIS_TYPE":0,"CLASSIFICATION_TYPE":"U","NORAD_CAT_ID":60549,"ELEMENT_SET_NO":999,"REV_AT_EPOCH":8451,"BSTAR":0.00029544368,"MEAN_MOTION_DOT":3.389e-5,"MEAN_MOTION_DDOT":0},{"OBJECT_NAME":"SATELIOT_1","OBJECT_ID":"2024-149CL","EPOCH":"2026-03-05T05:05:43.234944","MEAN_MOTION":14.97574292,"ECCENTRICITY":0.00076127,"INCLINATION":97.6807,"RA_OF_ASC_NODE":141.8496,"ARG_OF_PERICENTER":70.6144,"MEAN_ANOMALY":289.5901,"EPHEMERIS_TYPE":0,"CLASSIFICATION_TYPE":"U","NORAD_CAT_ID":60550,"ELEMENT_SET_NO":999,"REV_AT_EPOCH":8450,"BSTAR":0.00028454676,"MEAN_MOTION_DOT":3.267e-5,"MEAN_MOTION_DDOT":0},{"OBJECT_NAME":"BRO-14","OBJECT_ID":"2024-149CM","EPOCH":"2026-03-05T04:35:19.253184","MEAN_MOTION":14.95914094,"ECCENTRICITY":0.00080705,"INCLINATION":97.6943,"RA_OF_ASC_NODE":141.8272,"ARG_OF_PERICENTER":86.9913,"MEAN_ANOMALY":273.2232,"EPHEMERIS_TYPE":0,"CLASSIFICATION_TYPE":"U","NORAD_CAT_ID":60551,"ELEMENT_SET_NO":999,"REV_AT_EPOCH":8444,"BSTAR":0.00012874506,"MEAN_MOTION_DOT":1.384e-5,"MEAN_MOTION_DDOT":0},{"OBJECT_NAME":"SATELIOT_3","OBJECT_ID":"2024-149CN","EPOCH":"2026-03-05T04:30:21.428928","MEAN_MOTION":14.97575796,"ECCENTRICITY":0.0006351,"INCLINATION":97.6892,"RA_OF_ASC_NODE":142.522,"ARG_OF_PERICENTER":75.4722,"MEAN_ANOMALY":284.7205,"EPHEMERIS_TYPE":0,"CLASSIFICATION_TYPE":"U","NORAD_CAT_ID":60552,"ELEMENT_SET_NO":999,"REV_AT_EPOCH":8451,"BSTAR":0.00025201363,"MEAN_MOTION_DOT":2.886e-5,"MEAN_MOTION_DDOT":0},{"OBJECT_NAME":"BRO-15","OBJECT_ID":"2024-149CP","EPOCH":"2026-03-05T04:06:14.047488","MEAN_MOTION":14.95880996,"ECCENTRICITY":0.00096131,"INCLINATION":97.6875,"RA_OF_ASC_NODE":141.5073,"ARG_OF_PERICENTER":79.028,"MEAN_ANOMALY":281.2022,"EPHEMERIS_TYPE":0,"CLASSIFICATION_TYPE":"U","NORAD_CAT_ID":60553,"ELEMENT_SET_NO":999,"REV_AT_EPOCH":8445,"BSTAR":0.00014035888,"MEAN_MOTION_DOT":1.513e-5,"MEAN_MOTION_DDOT":0},{"OBJECT_NAME":"UM5-RIBAT","OBJECT_ID":"2024-149CQ","EPOCH":"2026-03-05T06:15:33.022368","MEAN_MOTION":15.00420922,"ECCENTRICITY":0.00037584,"INCLINATION":97.68,"RA_OF_ASC_NODE":143.4351,"ARG_OF_PERICENTER":94.8527,"MEAN_ANOMALY":265.3126,"EPHEMERIS_TYPE":0,"CLASSIFICATION_TYPE":"U","NORAD_CAT_ID":60554,"ELEMENT_SET_NO":999,"REV_AT_EPOCH":8460,"BSTAR":0.00038838096,"MEAN_MOTION_DOT":4.825e-5,"MEAN_MOTION_DDOT":0},{"OBJECT_NAME":"UM5-EOSAT","OBJECT_ID":"2024-149CR","EPOCH":"2026-03-05T04:32:52.087200","MEAN_MOTION":15.00848428,"ECCENTRICITY":0.00090903,"INCLINATION":97.6877,"RA_OF_ASC_NODE":144.1938,"ARG_OF_PERICENTER":119.9691,"MEAN_ANOMALY":240.2436,"EPHEMERIS_TYPE":0,"CLASSIFICATION_TYPE":"U","NORAD_CAT_ID":60555,"ELEMENT_SET_NO":999,"REV_AT_EPOCH":8461,"BSTAR":0.00041179181,"MEAN_MOTION_DOT":5.181e-5,"MEAN_MOTION_DDOT":0},{"OBJECT_NAME":"LASARSAT","OBJECT_ID":"2024-247Q","EPOCH":"2026-03-05T05:01:44.790816","MEAN_MOTION":15.39833559,"ECCENTRICITY":0.00027827,"INCLINATION":44.9754,"RA_OF_ASC_NODE":123.6865,"ARG_OF_PERICENTER":357.5734,"MEAN_ANOMALY":2.5139,"EPHEMERIS_TYPE":0,"CLASSIFICATION_TYPE":"U","NORAD_CAT_ID":62391,"ELEMENT_SET_NO":999,"REV_AT_EPOCH":6725,"BSTAR":0.00087708329,"MEAN_MOTION_DOT":0.00035378,"MEAN_MOTION_DDOT":0},{"OBJECT_NAME":"CROCUBE","OBJECT_ID":"2024-247T","EPOCH":"2026-03-04T04:55:41.656800","MEAN_MOTION":15.40856803,"ECCENTRICITY":0.00030193,"INCLINATION":44.9726,"RA_OF_ASC_NODE":127.9459,"ARG_OF_PERICENTER":338.1177,"MEAN_ANOMALY":21.9582,"EPHEMERIS_TYPE":0,"CLASSIFICATION_TYPE":"U","NORAD_CAT_ID":62394,"ELEMENT_SET_NO":999,"REV_AT_EPOCH":6711,"BSTAR":0.0010733311,"MEAN_MOTION_DOT":0.00044929,"MEAN_MOTION_DDOT":0}]
